#aV2020  1 16  0  0  0.00000000     288 DD+AD WGS84 FIT  NGA
## 2088 345600.00000000   300.00000000 58864 0.0000000000000
+   32     1  2  3  4  5  6  7  8  9 10 11 12 13 14 15 16 17
+         18 19 20 21 22 23 24 25 26 27 28 29 30 31 32  0  0
+          0  0  0  0  0  0  0  0  0  0  0  0  0  0  0  0  0
+          0  0  0  0  0  0  0  0  0  0  0  0  0  0  0  0  0
+          0  0  0  0  0  0  0  0  0  0  0  0  0  0  0  0  0
++         2  2  2  2  2  2  2  2  2  2  2  2  2  2  2  2  2
++         2  2  2  2  2  2  2  2  2  2  2  2  2  2  2  0  0
++         0  0  0  0  0  0  0  0  0  0  0  0  0  0  0  0  0
++         0  0  0  0  0  0  0  0  0  0  0  0  0  0  0  0  0
++         0  0  0  0  0  0  0  0  0  0  0  0  0  0  0  0  0
%c cc cc ccc ccc cccc cccc cccc cccc ccccc ccccc ccccc ccccc
%c cc cc ccc ccc cccc cccc cccc cccc ccccc ccccc ccccc ccccc
%f  0.0000000  0.000000000  0.00000000000  0.000000000000000
%f  0.0000000  0.000000000  0.00000000000  0.000000000000000
%i    0    0    0    0      0      0      0      0         0
%i    0    0    0    0      0      0      0      0         0
/*      NGA, ST. LOUIS,MO.                                  
/*   EPHEMERIS COMPUTED FROM 2 DAYS OF DATA                 
/*   EPOCHA v5 SMOOTHER                                     
/*   G1762 IERS2010 SATAF SATAPC                            
*  2020  1 16 23 10  0.00000000
P  1  11320.512187 -20457.238778 -12487.578954   -264.699029                    
V  1  13281.231255  -8480.057648  26676.206134     -0.121425                    
P  2 -21417.993510  13095.098538  -7875.839147   -387.218935                    
V  2   5765.511940  -9709.598091 -29554.396265     -0.071480                    
P  3    825.220375 -15571.922117 -21568.635621    -73.841040                    
V  3  25772.203317   8784.159226  -5280.718121     -0.078233                    
P  4   1470.447407 -25431.347194  -7478.094042    -35.364268                    
V  4   4088.054963   9002.447646 -29806.148471     -0.054393                    
P  5 -21110.193710   4700.305612  15409.033023     -6.192511                    
V  5 -18151.723593  -8077.429581 -22016.166523     -0.005287                    
P  6 -19759.450969   1210.492796 -17670.926529   -184.050844                    
V  6  16237.868634 -15616.958849 -19135.072475     -0.101905                    
P  7  -5378.164979 -15192.035799  21324.831072   -193.651082                    
V  7  20953.361454 -16285.644354  -6877.608021     -0.083251                    
P  8   7603.633786 -19376.623023  16389.340743    -20.462987                    
V  8   5836.255173  20071.327725  21295.497642     -0.013375                    
P  9  -6616.138805 -25625.802593   2095.643774   -134.061825                    
V  9   2498.607544  -3284.199204 -31426.640589     -0.087589                    
P 10  23600.262264  11647.659821   4483.808853   -211.956798                    
V 10  -6055.515133    436.125110  31022.136237     -0.135704                    
P 11   9352.377782 -24998.011854  -1681.387258   -388.142892                    
V 11   4359.059474    172.464536  30343.721367      0.108632                    
P 12  -5633.495678  13789.860875 -22215.159386    161.581909                    
V 12 -25278.406772 -11094.826468   -314.798061     -0.041058                    
P 13 -13007.723564  11764.541844  19797.548989    -19.474315                    
V 13  -2562.566990 -25312.713721  13351.382234      0.025894                    
P 14  15243.471633   3539.449238 -21155.583769    -38.348824                    
V 14   2301.778847  27519.812444   5988.626083      0.023012                    
P 15  -5854.850069  20593.087154  15167.953661   -258.120930                    
V 15  -8482.740327 -18420.590636  21692.132455      0.026387                    
P 16  21703.190225  -1350.727291  15356.545139   -114.328706                    
V 16  17286.520909   9421.489947 -22860.922547     -0.040270                    
P 17 -13358.119897 -14795.750708 -17155.385732    199.840059                    
V 17  -1442.608469 -22546.271069  20015.900510      0.066207                    
P 18  16410.739925 -20339.376741  -4953.531699    113.871416                    
V 18   6105.169158  -1813.190168  30901.852045      0.024190                    
P 19 -14814.417413  -6546.754716 -21341.292901   -211.536196                    
V 19  -1520.579936 -26322.598790   9266.891865      0.051764                    
P 20  17258.408431  14470.461505  14142.988672    527.802207                    
V 20 -18258.973074  -1249.366590  23201.080219      0.000408                    
P 21   8171.883082  13864.342335  21949.460527    -54.716022                    
V 21 -18892.157090  17901.309614  -4208.025465      0.055486                    
P 22   9624.924571 -13344.357276 -20613.434985   -782.147013                    
V 22  25665.855059   7829.824427   6952.211592     -0.012658                    
P 23   -789.210161 -25555.944812  -6058.436080   -142.641155                    
V 23   5213.341452   7344.711079 -30310.087679      0.024644                    
P 24 -11806.787022  21445.964503 -10021.629395     -7.676542                    
V 24 -11478.612958   6255.900223  27786.426612     -0.005292                    
P 25   9002.355043  16928.935438 -18716.969854    -15.866276                    
V 25 -22221.989653  -6735.779862 -16718.561243      0.008178                    
P 26  25593.375110   3112.778544   6815.456471    128.783871                    
V 26   7353.521491   5380.826281 -29746.061337      0.079854                    
P 27  13109.785929  -8295.031891  21391.860988   -183.245844                    
V 27   5640.246161  26867.756770   7238.008970     -0.112948                    
P 28 -22732.144797 -13243.282842   3639.876259    744.874868                    
V 28   4482.461546   -411.349456  31819.009870     -0.020922                    
P 29   4301.377188  26121.911529   1977.674599     -9.278089                    
V 29  -1735.838504   2758.374430 -32179.725178     -0.095559                    
P 30 -15427.934691  -6972.360167  20534.666503   -130.907491                    
V 30  19888.035369 -16844.252515   9038.788231     -0.088352                    
P 31  21433.173537  -3047.599846 -15725.377944    -17.001367                    
V 31 -14310.166268  13689.858124 -21747.505526     -0.025047                    
P 32  15012.488845  13386.709261 -17351.674763    186.872100                    
V 32   2461.902721  22045.088161  18933.528231      0.105759                    
EOF
